STARLINK-37359          
1 69188U 26114G   26164.60357262  .00121835  00000+0  69457-3 0  9999
2 69188  53.1588 220.3241 0001310  93.2497 266.8674 15.78086708  4202
STARLINK-37440          
1 69189U 26114H   26164.55846567  .00219045  00000+0  10830-2 0  9996
2 69189  53.1586 220.0202 0001134  77.9397 282.1753 15.80920916  4207
STARLINK-37282          
1 69190U 26114J   26164.59711688  .00194396  00000+0  10951-2 0  9992
2 69190  53.1591 220.2800 0001088 134.4533 225.6578 15.78116324  4204
STARLINK-37422          
1 69191U 26114K   26164.58573665  .00347572  00000+0  16920-2 0  9991
2 69191  53.1578 220.2039 0001636  49.2104 310.9061 15.80906818  4203
STARLINK-37424          
1 69192U 26114L   26164.40712049  .02508493  00000+0  11723-1 0  9992
2 69192  53.1589 221.2294 0003123 264.7292  95.3373 15.79280320  4172
STARLINK-36666          
1 69193U 26114M   26164.33295145  .09863095  00000+0  32565-1 0  9994
2 69193  53.1576 221.4743 0017523 265.1597  94.7426 15.84472201  4160
STARLINK-37355          
1 69194U 26114N   26164.58519372  .00260887  00000+0  12790-2 0  9993
2 69194  53.1577 220.2023 0001078  86.4641 273.6505 15.80988288  4206
STARLINK-37166          
1 69195U 26114P   26164.58370601  .00218519  00000+0  10799-2 0  9996
2 69195  53.1576 220.1906 0001019  64.0853 296.0275 15.80931960  4205
STARLINK-36933          
1 69196U 26114Q   26164.58444829  .00211139  00000+0  10422-2 0  9995
2 69196  53.1579 220.1963 0001381  99.7440 260.3739 15.80979977  4200
STARLINK-37419          
1 69197U 26114R   26164.58295382  .00231686  00000+0  11425-2 0  9997
2 69197  53.1576 220.1868 0001149 124.0001 236.1131 15.80942367  4209
STARLINK-37321          
1 69198U 26114S   26164.58220611  .00176779  00000+0  87922-3 0  9998
2 69198  53.1580 220.1814 0000948  80.1708 279.9422 15.80916283  4204
STARLINK-37406          
1 69199U 26114T   26164.58145416  .00186751  00000+0  92677-3 0  9992
2 69199  53.1576 220.1762 0000894  86.8441 273.2684 15.80934274  4206
STARLINK-37761          
1 69200U 26114U   26164.58070534  .00193379  00000+0  95894-3 0  9991
2 69200  53.1577 220.1714 0001005  63.9191 296.1935 15.80931071  4205
STARLINK-37754          
1 69201U 26114V   26164.57976074  .00219633  00000+0  10848-2 0  9992
2 69201  53.1575 220.1644 0000943  94.1604 265.9527 15.80941868  4207
STARLINK-37649          
1 69202U 26114W   26164.57920518  .00299427  00000+0  14626-2 0  9992
2 69202  53.1575 220.1610 0001314  49.7718 310.3420 15.80961990  4201
STARLINK-37604          
1 69203U 26114X   26164.57845365  .00218699  00000+0  10802-2 0  9993
2 69203  53.1577 220.1559 0000956  83.3557 276.7575 15.80943633  4202
STARLINK-37669          
1 69204U 26114Y   26164.57770568  .00196751  00000+0  97565-3 0  9992
2 69204  53.1578 220.1502 0001168  77.1727 282.9426 15.80921439  4202
STARLINK-37691          
1 69205U 26114Z   26164.58574914  .00165349  00000+0  93614-3 0  9991
2 69205  53.1582 220.2031 0001186  67.1240 292.9907 15.78094995  4205
STARLINK-37671          
1 69206U 26114AA  26164.58335648 -.00015094  00000+0 -83222-4 0  9999
2 69206  53.1586 220.1329 0001686  51.6262 336.4623 15.78055674  4239
STARLINK-37647          
1 69207U 26114AB  26164.57695543  .00250930  00000+0  12342-2 0  9993
2 69207  53.1580 220.1459 0001289  57.3218 302.7929 15.80945247  4200
STARLINK-37562          
1 69208U 26114AC  26164.58335648 -.00052099  00000+0 -29769-3 0  9992
2 69208  53.1587 220.1560 0001305  83.2396 293.2360 15.78079755  4230
STARLINK-37682          
1 69209U 26114AD  26164.57395446  .00231088  00000+0  11397-2 0  9996
2 69209  53.1579 220.1249 0001114  78.2348 281.8800 15.80940619  4203
STARLINK-37402          
1 69210U 26114AE  26164.57320435  .00243652  00000+0  11995-2 0  9998
2 69210  53.1577 220.1198 0001053  76.0475 284.0665 15.80944846  4205
STARLINK-37613          
1 69211U 26115A   26164.58335648  .00026148  00000+0  48055-3 0  9990
2 69211  97.2840 181.6627 0001236  79.1561 295.4571 15.49206784  4118
STARLINK-37713          
1 69212U 26115B   26164.58335648 -.02499406  00000+0 -37846-1 0  9990
2 69212  97.2845 181.7801 0001692 109.3327 173.6708 15.58379994  4114
STARLINK-37716          
1 69213U 26115C   26164.58335648 -.02609950  00000+0 -32822-1 0  9997
2 69213  97.2840 181.8160 0001351  81.9648 294.0400 15.63355744  4112
STARLINK-37620          
1 69214U 26115D   26164.58335648  .00034104  00000+0  62639-3 0  9998
2 69214  97.2843 181.6282 0000334  84.9414 210.2691 15.49172512  4119
STARLINK-37700          
1 69215U 26115E   26164.56841546  .00025209  00000+0  46368-3 0  9993
2 69215  97.2835 181.5243 0001399  92.0492 268.0919 15.49189428  4090
STARLINK-37766          
1 69216U 26115F   26164.58335648 -.02593539  00000+0 -27200-1 0  9999
2 69216  97.2839 181.8381 0001499  83.2894 345.7777 15.67838435  4117
STARLINK-37763          
1 69217U 26115G   26164.58335648 -.02610129  00000+0 -34005-1 0  9996
2 69217  97.2843 181.8100 0001276  90.1077 274.8412 15.62459981  4113
