OBJECT_NAME,OBJECT_ID,EPOCH,MEAN_MOTION,ECCENTRICITY,INCLINATION,RA_OF_ASC_NODE,ARG_OF_PERICENTER,MEAN_ANOMALY,EPHEMERIS_TYPE,CLASSIFICATION_TYPE,NORAD_CAT_ID,ELEMENT_SET_NO,REV_AT_EPOCH,BSTAR,MEAN_MOTION_DOT,MEAN_MOTION_DDOT
STARLINK-37359,2026-114G,2026-06-13T14:29:08.674368,15.78086708,.00013101,53.1588,220.3241,93.2497,266.8674,0,U,69188,999,420,.69457201E-3,.121835E-2,0
STARLINK-37440,2026-114H,2026-06-13T13:24:11.433888,15.80920916,.00011349,53.1586,220.0202,77.9397,282.1753,0,U,69189,999,420,.10830164E-2,.219045E-2,0
STARLINK-37282,2026-114J,2026-06-13T14:19:50.898432,15.78116324,.00010887,53.1591,220.2800,134.4533,225.6578,0,U,69190,999,420,.10951221E-2,.194396E-2,0
STARLINK-37422,2026-114K,2026-06-13T14:03:27.646560,15.80906818,.00016368,53.1578,220.2039,49.2104,310.9061,0,U,69191,999,420,.16919586E-2,.347572E-2,0
STARLINK-37424,2026-114L,2026-06-13T09:46:15.210336,15.79280320,.00031234,53.1589,221.2294,264.7292,95.3373,0,U,69192,999,417,.11723358E-1,.2508493E-1,0
STARLINK-36666,2026-114M,2026-06-13T07:59:27.005280,15.84472201,.00175237,53.1576,221.4743,265.1597,94.7426,0,U,69193,999,416,.32565122E-1,.9863095E-1,0
STARLINK-37355,2026-114N,2026-06-13T14:02:40.737408,15.80988288,.00010786,53.1577,220.2023,86.4641,273.6505,0,U,69194,999,420,.12789726E-2,.260887E-2,0
STARLINK-37166,2026-114P,2026-06-13T14:00:32.199264,15.80931960,.00010198,53.1576,220.1906,64.0853,296.0275,0,U,69195,999,420,.10799374E-2,.218519E-2,0
STARLINK-36933,2026-114Q,2026-06-13T14:01:36.332256,15.80979977,.00013815,53.1579,220.1963,99.7440,260.3739,0,U,69196,999,420,.10421757E-2,.211139E-2,0
STARLINK-37419,2026-114R,2026-06-13T13:59:27.210048,15.80942367,.00011492,53.1576,220.1868,124.0001,236.1131,0,U,69197,999,420,.11424977E-2,.231686E-2,0
STARLINK-37321,2026-114S,2026-06-13T13:58:22.607904,15.80916283,.00009485,53.1580,220.1814,80.1708,279.9422,0,U,69198,999,420,.87921668E-3,.176779E-2,0
STARLINK-37406,2026-114T,2026-06-13T13:57:17.639424,15.80934274,.00008944,53.1576,220.1762,86.8441,273.2684,0,U,69199,999,420,.9267672E-3,.186751E-2,0
STARLINK-37761,2026-114U,2026-06-13T13:56:12.941376,15.80931071,.00010052,53.1577,220.1714,63.9191,296.1935,0,U,69200,999,420,.95894117E-3,.193379E-2,0
STARLINK-37754,2026-114V,2026-06-13T13:54:51.327936,15.80941868,.00009435,53.1575,220.1644,94.1604,265.9527,0,U,69201,999,420,.10847895E-2,.219633E-2,0
STARLINK-37649,2026-114W,2026-06-13T13:54:03.327552,15.80961990,.00013149,53.1575,220.1610,49.7718,310.3420,0,U,69202,999,420,.14625796E-2,.299427E-2,0
STARLINK-37604,2026-114X,2026-06-13T13:52:58.395360,15.80943633,.00009565,53.1577,220.1559,83.3557,276.7575,0,U,69203,999,420,.10802186E-2,.218699E-2,0
STARLINK-37669,2026-114Y,2026-06-13T13:51:53.770752,15.80921439,.00011683,53.1578,220.1502,77.1727,282.9426,0,U,69204,999,420,.97564901E-3,.196751E-2,0
STARLINK-37691,2026-114Z,2026-06-13T14:03:28.725696,15.78094995,.00011869,53.1582,220.2031,67.1240,292.9907,0,U,69205,999,420,.93613717E-3,.165349E-2,0
STARLINK-37671,2026-114AA,2026-06-13T14:00:01.999872,15.78055674,.00016861,53.1586,220.1329,51.6262,336.4623,0,U,69206,999,423,-.83222134E-4,-.15094E-3,0
STARLINK-37647,2026-114AB,2026-06-13T13:50:48.949152,15.80945247,.00012894,53.1580,220.1459,57.3218,302.7929,0,U,69207,999,420,.123417E-2,.25093E-2,0
STARLINK-37562,2026-114AC,2026-06-13T14:00:01.999872,15.78079755,.00013052,53.1587,220.1560,83.2396,293.2360,0,U,69208,999,423,-.2976889E-3,-.52099E-3,0
STARLINK-37682,2026-114AD,2026-06-13T13:46:29.665344,15.80940619,.00011146,53.1579,220.1249,78.2348,281.8800,0,U,69209,999,420,.11397271E-2,.231088E-2,0
STARLINK-37402,2026-114AE,2026-06-13T13:45:24.855840,15.80944846,.00010532,53.1577,220.1198,76.0475,284.0665,0,U,69210,999,420,.11995082E-2,.243652E-2,0
STARLINK-37613,2026-115A,2026-06-13T14:00:01.999872,15.49206784,.00012369,97.2840,181.6627,79.1561,295.4571,0,U,69211,999,411,.48055236E-3,.26148E-3,0
STARLINK-37713,2026-115B,2026-06-13T14:00:01.999872,15.58379994,.00016921,97.2845,181.7801,109.3327,173.6708,0,U,69212,999,411,-.37846111E-1,-.2499406E-1,0
STARLINK-37716,2026-115C,2026-06-13T14:00:01.999872,15.63355744,.00013518,97.2840,181.8160,81.9648,294.0400,0,U,69213,999,411,-.32822379E-1,-.260995E-1,0
STARLINK-37620,2026-115D,2026-06-13T14:00:01.999872,15.49172512,.00003341,97.2843,181.6282,84.9414,210.2691,0,U,69214,999,411,.62639176E-3,.34104E-3,0
STARLINK-37700,2026-115E,2026-06-13T13:38:31.095744,15.49189428,.00013995,97.2835,181.5243,92.0492,268.0919,0,U,69215,999,409,.46368283E-3,.25209E-3,0
STARLINK-37766,2026-115F,2026-06-13T14:00:01.999872,15.67838435,.00014996,97.2839,181.8381,83.2894,345.7777,0,U,69216,999,411,-.27200402E-1,-.2593539E-1,0
STARLINK-37763,2026-115G,2026-06-13T14:00:01.999872,15.62459981,.00012762,97.2843,181.8100,90.1077,274.8412,0,U,69217,999,411,-.34004601E-1,-.2610129E-1,0
